NOAA 15                 
1 25338U 98030A   21356.54406889  .00000077  00000+0  50696-4 0  9995
2 25338  98.6641  23.2168 0011421  93.3491 266.8996 14.26077427228050
NOAA 18                 
1 28654U 05018A   21356.42553443  .00000134  00000+0  96552-4 0  9994
2 28654  98.9729  61.8317 0015180 111.1341 249.1455 14.12669169855074
METOP-A                 
1 29499U 06044A   21356.57762758  .00000805  00000+0  11629-3 0  9995
2 29499  98.4753  30.3846 0198642 201.9065 277.3113 14.66862704787592
NOAA 19                 
1 33591U 09005A   21356.47805769  .00000081  00000+0  68875-4 0  9994
2 33591  99.1688  21.7135 0013391 328.2321  31.8041 14.12516633663465
METOP-B                 
1 38771U 12049A   21356.47258076  .00000063  00000+0  48797-4 0  9995
2 38771  98.6915  53.9378 0001492 145.1968 342.7860 14.21498644480589
SARAL                   
1 39086U 13009A   21355.92020471  .00000028  00000+0  26705-4 0  9993
2 39086  98.5432 179.1862 0002046  78.2448 281.8965 14.32045617461078
METOP-C                 
1 43689U 18087A   21356.48435208  .00000067  00000+0  50782-4 0  9993
2 43689  98.7111  54.0845 0003003 171.8157 188.3070 14.21485236162160
ANGELS                  
1 44876U 19092D   21355.74808333  .00001793  00000+0  93956-4 0  9997
2 44876  97.4677 176.5370 0010846 254.1735 105.8303 15.17031492111293
